{
    "satellites": [
        {
            "name": "starlink369",
            "title": "Starlink-369 (G17-15)",
            "tle": [
                "1 68299C 26057F   26092.31576389 -.01409300  00000+0 -46497-2 0   929",
                "2 68299  97.2786 215.8080 0001551  55.0936   8.0254 15.91139886    10"
            ],
            "stdMag": 5,
            "noradId": "68299",
            "intDes": null,
            "tleUrl": "http://celestrak.org/NORAD/elements/supplemental/sup-gp.php?FILE=starlink&FORMAT=tle",
            "launchDate": "2026-03-20T21:51:49.000Z",
            "active": true,
            "batch": [
                {
                    "noradId": "68299",
                    "tle": [
                        "1 68299C 26057F   26092.31576389 -.01409300  00000+0 -46497-2 0   929",
                        "2 68299  97.2786 215.8080 0001551  55.0936   8.0254 15.91139886    10"
                    ]
                }
            ]
        }
    ],
    "config": {}
}